#cP2022  3 30 12  0  0.00000000     576 d+D   IGb14 EXT AIUB
## 2203 302400.00000000   300.00000000 59668 0.5000000000000
+   75   G01G02G03G04G05G06G07G08G09G10G11G12G13G14G15G16G17
+        G18G19G20G21G22G23G24G25G26G27G28G29G30G31G32R01R02
+        R03R04R05R07R08R09R12R13R14R15R17R18R19R21R24E01E02
+        E03E04E05E07E08E09E10E11E12E13E14E15E18E19E21E24E25
+        E26E27E30E31E33E34E36  0  0  0  0  0  0  0  0  0  0
++         6  8  6  8  7  6  7  6  6  6  8  7  7  7  7  7  7
++         8  7  7  7  7  6  6  6  6  6  7  7  7  7  5  8  6
++         6  7  7  7  7  7  8  8  7  8  7  6  8  7  7  6  6
++         6  6  6  6  5  6  6  6  6  6  6  6  6  7  6  6  6
++         7  5  5  5  6  7  6  0  0  0  0  0  0  0  0  0  0
%c M  cc GPS ccc cccc cccc cccc cccc ccccc ccccc ccccc ccccc
%c cc cc ccc ccc cccc cccc cccc cccc ccccc ccccc ccccc ccccc
%f  1.2500000  1.025000000  0.00000000000  0.000000000000000
%f  0.0000000  0.000000000  0.00000000000  0.000000000000000
%i    0    0    0    0      0      0      0      0         0
%i    0    0    0    0      0      0      0      0         0
/* Center for Orbit Determination in Europe (CODE)          
/* Ultra-rapid GRE orbits starting year-day 22089 12 hour   
/* Observed/predicted: 24/24 hours (data used up to 090L)   
/* PCV:IGS14      OL/AL:FES2014b NONE     YN ORB:CoN CLK:BRD
*  2022  3 30 23 45  0.00000000
PG01  22165.417492  14475.422219  -4139.234464    396.337425
PG02  -4769.670415 -17119.531222  20353.224577   -652.784175
PG03  12651.925103  15838.594022  17116.911797   -186.503873
PG04  16381.187351   6302.516419  19966.822238   -179.753868
PG05  -5657.281096 -25530.513098  -4323.368966    -76.561870
PG06  11806.484070 -10060.987496  21638.694518    249.526702
PG07  24210.320939   3924.084272 -10404.804031    318.462924
PG08   7433.625353  13251.606539 -21804.775369    -61.947454
PG09  22574.852749  -4070.853509  13348.050873   -346.739960
PG10 -11847.754679  14352.637844 -18687.115701   -363.387497
PG11  -3713.462189 -17702.109407  19451.554808    -52.474525
PG12  -9903.316658 -19622.544173  14730.436520   -192.937811
PG13   2341.081711 -16801.090570 -20546.550420    285.790160
PG14  13163.299123 -13170.605895 -18915.499749    -98.660051
PG15  -9926.964338 -12646.510105 -21545.455910    -72.706357
PG16   -252.234077  26299.076499   -743.850959   -486.556949
PG17  22256.660057 -14448.805069   2109.677714    594.121661
PG18 -23892.902746  -4019.265849 -11006.663077    207.380660
PG19  19005.093438 -16230.701094   8437.002872    137.988167
PG20  -1290.205075 -25980.447045   5953.605082    516.059548
PG21  16574.181377  16308.952979 -12757.326292    159.977628
PG22 -15970.776699  17941.016070  11538.016243    235.728721
PG23 -14913.235641   2322.258601 -21861.750964    -11.157742
PG24 -20597.848380 -15044.545084  -8422.007333    262.583769
PG25 -15068.508973  -6152.611367  20751.585325    305.492018
PG26  -5763.806405  23077.806539  11405.671054    194.941781
PG27  -4842.107087  18384.944060 -18580.657535    170.251414
PG28   9464.910011 -21089.864909 -12764.821590    374.580461
PG29 -22148.431326   1184.916096  14606.737396   -497.524930
PG30  20073.128422  -3687.024098 -17053.726807   -521.432266
PG31 -10060.919061  11834.761071  21455.044590   -171.282191
PG32 -19974.018319  16893.345725   4090.794568    -95.344641
PR01 -14412.584307   5847.913788 -20215.076750      7.470864
PR02 -14604.915931  20421.731678  -4274.120112    514.088535
PR03  -5541.609590  21348.782831  12815.162700     54.060562
PR04   6164.469661  10268.954069  22552.935934    134.375175
PR05  14674.744404  -6386.075157  19886.870032     90.319567
PR07   5197.509864 -21147.808016 -13277.757487     33.270475
PR08  -6317.749152 -10222.027592 -22441.671087    -64.316285
PR09   5274.942154 -12194.462535 -21747.313343     47.177825
PR12 -14333.815645  -5366.155100  20432.335344     17.672183
PR13  -5852.526720  11056.626065  22208.799840    -20.178422
PR14   6898.102614  22185.862035  10552.302750     75.968965
PR15  14888.628351  19574.303570  -6756.804966     97.188556
PR17    694.564081  10538.311088 -23211.309305    513.706471
PR18  17777.376607   7810.953819 -16562.523008    111.997036
PR19  25304.001892   2252.165164  -2331.363070   -183.561416
PR21  -2332.548921 -10450.436631  23151.558587   -289.493822
PR24 -17448.825810   7501.414817 -17015.066289     86.839334
PE01 -11634.943641  16877.431468  21344.365834   -607.001027
PE02  11551.013410 -17055.565461 -21271.460394    289.689176
PE03  22162.490932 -19605.449596   -550.040978   -542.908762
PE04  -7713.866299  22753.422829  17300.234199   -996.001580
PE05  23854.243493  -4864.420893  16843.977887   -195.403157
PE07 -11646.079049 -12478.022849 -24173.959008   -653.680934
PE08   7372.484591 -22624.698190 -17593.944338   -504.089383
PE09  11761.315110  12190.687355  24280.981962   -467.492394
PE10  12764.213083  17853.602696 -19870.464024   -503.689239
PE11  21963.659147  15804.069978 -12035.272597   4091.394340
PE12   1941.698793  17176.217657 -24033.745944   4687.145020
PE13 -21488.941017 -15934.707011  12657.635927    427.681815
PE14  20071.794116 -14101.908486   2611.473153  -1796.887905
PE15  -1793.880316 -17057.395056  24128.730981    754.605261
PE18 -17240.561406  22973.078616 -14102.278222  -1621.845691
PE19 -23206.731828  18283.303727  -1785.179443  -2200.989729
PE21 -17172.616516  -3574.466756  23837.434381   -725.616569
PE24  12585.067725  24065.554931 -11760.611623   -534.360801
PE25  17189.617214   3859.851140 -23784.748801   -568.667545
PE26 -28325.546405  -4836.172621  -7085.624368   -973.832145
PE27 -13210.329513 -23205.370267  12785.548749   -265.174631
PE30   -658.130241 -28844.988748  -6669.578191   -391.409106
PE31   1507.314877  29004.468612   5695.040981   -494.321880
PE33 -18846.698260   8123.646916 -21319.713687   -458.068001
PE34  18672.236020  -8281.334047  21418.161933   -509.531954
PE36  28438.370004   5460.895253   6175.587947   -352.782108
EOF
